ONEWEB-0550             
1 56052U 23043G   26064.97842413  .00000025  00000+0  28136-4 0  9996
2 56052  87.9166 264.5607 0001526  94.9339 265.1970 13.21824047144593
ONEWEB-0551             
1 56053U 23043H   26064.64121285  .00000020  00000+0  19327-4 0  9995
2 56053  87.8943 279.9047 0001833  94.3077 265.8262 13.15548455142787
ONEWEB-0552             
1 56054U 23043J   26064.97350475  .00000105  00000+0  22258-3 0  9997
2 56054  87.9162 264.5701 0001606  99.1244 261.0071 13.21825256144597
ONEWEB-0553             
1 56055U 23043K   26064.97805540 -.00000026  00000+0 -10033-3 0  9998
2 56055  87.9006 249.3050 0001524  81.2510 278.8794 13.16593455145394
ONEWEB-0554             
1 56056U 23043L   26064.96538759  .00000053  00000+0  10503-3 0  9993
2 56056  87.9002 249.3180 0001285  94.3051 265.8227 13.16593518145379
ONEWEB-0555             
1 56057U 23043M   26064.92739389 -.00000031  00000+0 -11418-3 0  9996
2 56057  87.9003 249.3107 0001663  75.7454 284.3861 13.16593334145376
ONEWEB-0557             
1 56058U 23043N   26064.94163842  .00000060  00000+0  12212-3 0  9997
2 56058  87.9003 249.3189 0000826  40.3038 319.8154 13.16593197145379
ONEWEB-0558             
1 56059U 23043P   26064.96691787  .00000116  00000+0  24903-3 0  9996
2 56059  87.9163 264.5636 0002110  97.0466 263.0908 13.21825640144604
ONEWEB-0559             
1 56060U 23043Q   26064.57689762 -.00000089  00000+0 -24817-3 0  9990
2 56060  87.9160 264.6350 0001765 101.0134 259.1198 13.21826919144562
ONEWEB-0566             
1 56061U 23043R   26064.57033494  .00000037  00000+0  57208-4 0  9998
2 56061  87.9164 264.6361 0001855  99.0998 261.0345 13.21826385144544
ONEWEB-0568             
1 56062U 23043S   26064.88307165  .00000330  00000+0  82871-3 0  9991
2 56062  87.9001 249.3208 0001567  83.1551 276.9759 13.16594600145387
ONEWEB-0574             
1 56063U 23043T   26064.94223642  .00000005  00000+0 -20537-4 0  9998
2 56063  87.9175 264.5544 0001406  89.7987 270.3308 13.21825358144637
ONEWEB-0575             
1 56064U 23043U   26064.87672557 -.00000013  00000+0 -66822-4 0  9991
2 56064  87.8999 249.3195 0001202  81.0629 279.0638 13.16593039145372
ONEWEB-0576             
1 56065U 23043V   26064.93372602 -.00000096  00000+0 -28362-3 0  9994
2 56065  87.9000 249.3111 0001432  91.2185 268.9110 13.16592535145372
ONEWEB-0577             
1 56066U 23043W   26064.94005671  .00000110  00000+0  25444-3 0  9998
2 56066  87.9006 249.3103 0000781  85.8356 274.2864 13.16593816145408
ONEWEB-0578             
1 56067U 23043X   26064.92905399 -.00000040  00000+0 -12954-3 0  9999
2 56067  87.9166 264.5637 0001663  82.1234 278.0089 13.21826868144594
ONEWEB-0579             
1 56068U 23043Y   26064.91919351 -.00000046  00000+0 -14312-3 0  9998
2 56068  87.9174 264.5558 0001608 101.7555 258.3759 13.21825981144601
