[{"OBJECT_NAME":"ONEWEB-0550","OBJECT_ID":"2023-043G","EPOCH":"2026-03-05T23:28:55.844832","MEAN_MOTION":13.21824047,"ECCENTRICITY":0.00015264,"INCLINATION":87.9166,"RA_OF_ASC_NODE":264.5607,"ARG_OF_PERICENTER":94.9339,"MEAN_ANOMALY":265.197,"EPHEMERIS_TYPE":0,"CLASSIFICATION_TYPE":"U","NORAD_CAT_ID":56052,"ELEMENT_SET_NO":999,"REV_AT_EPOCH":14459,"BSTAR":2.8135985e-5,"MEAN_MOTION_DOT":2.5e-7,"MEAN_MOTION_DDOT":0},{"OBJECT_NAME":"ONEWEB-0551","OBJECT_ID":"2023-043H","EPOCH":"2026-03-05T15:23:20.790240","MEAN_MOTION":13.15548455,"ECCENTRICITY":0.00018336,"INCLINATION":87.8943,"RA_OF_ASC_NODE":279.9047,"ARG_OF_PERICENTER":94.3077,"MEAN_ANOMALY":265.8262,"EPHEMERIS_TYPE":0,"CLASSIFICATION_TYPE":"U","NORAD_CAT_ID":56053,"ELEMENT_SET_NO":999,"REV_AT_EPOCH":14278,"BSTAR":1.9326972e-5,"MEAN_MOTION_DOT":2.0e-7,"MEAN_MOTION_DDOT":0},{"OBJECT_NAME":"ONEWEB-0552","OBJECT_ID":"2023-043J","EPOCH":"2026-03-05T23:21:50.810400","MEAN_MOTION":13.21825256,"ECCENTRICITY":0.00016063,"INCLINATION":87.9162,"RA_OF_ASC_NODE":264.5701,"ARG_OF_PERICENTER":99.1244,"MEAN_ANOMALY":261.0071,"EPHEMERIS_TYPE":0,"CLASSIFICATION_TYPE":"U","NORAD_CAT_ID":56054,"ELEMENT_SET_NO":999,"REV_AT_EPOCH":14459,"BSTAR":0.00022258354,"MEAN_MOTION_DOT":1.05e-6,"MEAN_MOTION_DDOT":0},{"OBJECT_NAME":"ONEWEB-0553","OBJECT_ID":"2023-043K","EPOCH":"2026-03-05T23:28:23.986560","MEAN_MOTION":13.16593455,"ECCENTRICITY":0.00015248,"INCLINATION":87.9006,"RA_OF_ASC_NODE":249.305,"ARG_OF_PERICENTER":81.251,"MEAN_ANOMALY":278.8794,"EPHEMERIS_TYPE":0,"CLASSIFICATION_TYPE":"U","NORAD_CAT_ID":56055,"ELEMENT_SET_NO":999,"REV_AT_EPOCH":14539,"BSTAR":-0.00010033335,"MEAN_MOTION_DOT":-2.6e-7,"MEAN_MOTION_DDOT":0},{"OBJECT_NAME":"ONEWEB-0554","OBJECT_ID":"2023-043L","EPOCH":"2026-03-05T23:10:09.487776","MEAN_MOTION":13.16593518,"ECCENTRICITY":0.0001285,"INCLINATION":87.9002,"RA_OF_ASC_NODE":249.318,"ARG_OF_PERICENTER":94.3051,"MEAN_ANOMALY":265.8227,"EPHEMERIS_TYPE":0,"CLASSIFICATION_TYPE":"U","NORAD_CAT_ID":56056,"ELEMENT_SET_NO":999,"REV_AT_EPOCH":14537,"BSTAR":0.0001050303,"MEAN_MOTION_DOT":5.3e-7,"MEAN_MOTION_DDOT":0},{"OBJECT_NAME":"ONEWEB-0555","OBJECT_ID":"2023-043M","EPOCH":"2026-03-05T22:15:26.832096","MEAN_MOTION":13.16593334,"ECCENTRICITY":0.0001663,"INCLINATION":87.9003,"RA_OF_ASC_NODE":249.3107,"ARG_OF_PERICENTER":75.7454,"MEAN_ANOMALY":284.3861,"EPHEMERIS_TYPE":0,"CLASSIFICATION_TYPE":"U","NORAD_CAT_ID":56057,"ELEMENT_SET_NO":999,"REV_AT_EPOCH":14537,"BSTAR":-0.00011418465,"MEAN_MOTION_DOT":-3.1e-7,"MEAN_MOTION_DDOT":0},{"OBJECT_NAME":"ONEWEB-0557","OBJECT_ID":"2023-043N","EPOCH":"2026-03-05T22:35:57.559488","MEAN_MOTION":13.16593197,"ECCENTRICITY":8.269e-5,"INCLINATION":87.9003,"RA_OF_ASC_NODE":249.3189,"ARG_OF_PERICENTER":40.3038,"MEAN_ANOMALY":319.8154,"EPHEMERIS_TYPE":0,"CLASSIFICATION_TYPE":"U","NORAD_CAT_ID":56058,"ELEMENT_SET_NO":999,"REV_AT_EPOCH":14537,"BSTAR":0.00012212112,"MEAN_MOTION_DOT":6.0e-7,"MEAN_MOTION_DDOT":0},{"OBJECT_NAME":"ONEWEB-0558","OBJECT_ID":"2023-043P","EPOCH":"2026-03-05T23:12:21.703968","MEAN_MOTION":13.2182564,"ECCENTRICITY":0.00021107,"INCLINATION":87.9163,"RA_OF_ASC_NODE":264.5636,"ARG_OF_PERICENTER":97.0466,"MEAN_ANOMALY":263.0908,"EPHEMERIS_TYPE":0,"CLASSIFICATION_TYPE":"U","NORAD_CAT_ID":56059,"ELEMENT_SET_NO":999,"REV_AT_EPOCH":14460,"BSTAR":0.00024902985,"MEAN_MOTION_DOT":1.16e-6,"MEAN_MOTION_DDOT":0},{"OBJECT_NAME":"ONEWEB-0559","OBJECT_ID":"2023-043Q","EPOCH":"2026-03-05T13:50:43.954368","MEAN_MOTION":13.21826919,"ECCENTRICITY":0.0001765,"INCLINATION":87.916,"RA_OF_ASC_NODE":264.635,"ARG_OF_PERICENTER":101.0134,"MEAN_ANOMALY":259.1198,"EPHEMERIS_TYPE":0,"CLASSIFICATION_TYPE":"U","NORAD_CAT_ID":56060,"ELEMENT_SET_NO":999,"REV_AT_EPOCH":14456,"BSTAR":-0.00024817,"MEAN_MOTION_DOT":-8.9e-7,"MEAN_MOTION_DDOT":0},{"OBJECT_NAME":"ONEWEB-0566","OBJECT_ID":"2023-043R","EPOCH":"2026-03-05T13:41:16.938816","MEAN_MOTION":13.21826385,"ECCENTRICITY":0.0001855,"INCLINATION":87.9164,"RA_OF_ASC_NODE":264.6361,"ARG_OF_PERICENTER":99.0998,"MEAN_ANOMALY":261.0345,"EPHEMERIS_TYPE":0,"CLASSIFICATION_TYPE":"U","NORAD_CAT_ID":56061,"ELEMENT_SET_NO":999,"REV_AT_EPOCH":14454,"BSTAR":5.7208e-5,"MEAN_MOTION_DOT":3.7e-7,"MEAN_MOTION_DDOT":0},{"OBJECT_NAME":"ONEWEB-0568","OBJECT_ID":"2023-043S","EPOCH":"2026-03-05T21:11:37.390560","MEAN_MOTION":13.165946,"ECCENTRICITY":0.00015673,"INCLINATION":87.9001,"RA_OF_ASC_NODE":249.3208,"ARG_OF_PERICENTER":83.1551,"MEAN_ANOMALY":276.9759,"EPHEMERIS_TYPE":0,"CLASSIFICATION_TYPE":"U","NORAD_CAT_ID":56062,"ELEMENT_SET_NO":999,"REV_AT_EPOCH":14538,"BSTAR":0.00082870699,"MEAN_MOTION_DOT":3.3e-6,"MEAN_MOTION_DDOT":0},{"OBJECT_NAME":"ONEWEB-0574","OBJECT_ID":"2023-043T","EPOCH":"2026-03-05T22:36:49.226688","MEAN_MOTION":13.21825358,"ECCENTRICITY":0.00014067,"INCLINATION":87.9175,"RA_OF_ASC_NODE":264.5544,"ARG_OF_PERICENTER":89.7987,"MEAN_ANOMALY":270.3308,"EPHEMERIS_TYPE":0,"CLASSIFICATION_TYPE":"U","NORAD_CAT_ID":56063,"ELEMENT_SET_NO":999,"REV_AT_EPOCH":14463,"BSTAR":-2.0536941e-5,"MEAN_MOTION_DOT":5.0e-8,"MEAN_MOTION_DDOT":0},{"OBJECT_NAME":"ONEWEB-0575","OBJECT_ID":"2023-043U","EPOCH":"2026-03-05T21:02:29.089248","MEAN_MOTION":13.16593039,"ECCENTRICITY":0.0001202,"INCLINATION":87.8999,"RA_OF_ASC_NODE":249.3195,"ARG_OF_PERICENTER":81.0629,"MEAN_ANOMALY":279.0638,"EPHEMERIS_TYPE":0,"CLASSIFICATION_TYPE":"U","NORAD_CAT_ID":56064,"ELEMENT_SET_NO":999,"REV_AT_EPOCH":14537,"BSTAR":-6.6821771e-5,"MEAN_MOTION_DOT":-1.3e-7,"MEAN_MOTION_DDOT":0},{"OBJECT_NAME":"ONEWEB-0576","OBJECT_ID":"2023-043V","EPOCH":"2026-03-05T22:24:33.928128","MEAN_MOTION":13.16592535,"ECCENTRICITY":0.00014327,"INCLINATION":87.9,"RA_OF_ASC_NODE":249.3111,"ARG_OF_PERICENTER":91.2185,"MEAN_ANOMALY":268.911,"EPHEMERIS_TYPE":0,"CLASSIFICATION_TYPE":"U","NORAD_CAT_ID":56065,"ELEMENT_SET_NO":999,"REV_AT_EPOCH":14537,"BSTAR":-0.00028362277,"MEAN_MOTION_DOT":-9.6e-7,"MEAN_MOTION_DDOT":0},{"OBJECT_NAME":"ONEWEB-0577","OBJECT_ID":"2023-043W","EPOCH":"2026-03-05T22:33:40.899744","MEAN_MOTION":13.16593816,"ECCENTRICITY":7.812e-5,"INCLINATION":87.9006,"RA_OF_ASC_NODE":249.3103,"ARG_OF_PERICENTER":85.8356,"MEAN_ANOMALY":274.2864,"EPHEMERIS_TYPE":0,"CLASSIFICATION_TYPE":"U","NORAD_CAT_ID":56066,"ELEMENT_SET_NO":999,"REV_AT_EPOCH":14540,"BSTAR":0.00025444311,"MEAN_MOTION_DOT":1.1e-6,"MEAN_MOTION_DDOT":0},{"OBJECT_NAME":"ONEWEB-0578","OBJECT_ID":"2023-043X","EPOCH":"2026-03-05T22:17:50.264736","MEAN_MOTION":13.21826868,"ECCENTRICITY":0.00016635,"INCLINATION":87.9166,"RA_OF_ASC_NODE":264.5637,"ARG_OF_PERICENTER":82.1234,"MEAN_ANOMALY":278.0089,"EPHEMERIS_TYPE":0,"CLASSIFICATION_TYPE":"U","NORAD_CAT_ID":56067,"ELEMENT_SET_NO":999,"REV_AT_EPOCH":14459,"BSTAR":-0.00012954263,"MEAN_MOTION_DOT":-4.0e-7,"MEAN_MOTION_DDOT":0},{"OBJECT_NAME":"ONEWEB-0579","OBJECT_ID":"2023-043Y","EPOCH":"2026-03-05T22:03:38.319264","MEAN_MOTION":13.21825981,"ECCENTRICITY":0.00016086,"INCLINATION":87.9174,"RA_OF_ASC_NODE":264.5558,"ARG_OF_PERICENTER":101.7555,"MEAN_ANOMALY":258.3759,"EPHEMERIS_TYPE":0,"CLASSIFICATION_TYPE":"U","NORAD_CAT_ID":56068,"ELEMENT_SET_NO":999,"REV_AT_EPOCH":14460,"BSTAR":-0.00014311713,"MEAN_MOTION_DOT":-4.6e-7,"MEAN_MOTION_DDOT":0}]
